QIANFAN-52              
1 62253U 24232S   26064.23634515  .00000094  00000+0  12779-3 0  9999
2 62253  89.0053  32.7796 0014130 320.9530  39.0600 13.51000800 79080
QIANFAN-53              
1 62254U 24232T   26064.21574206  .00000066  00000+0  83734-4 0  9997
2 62254  89.0061  32.8923 0013061 322.8341  37.1905 13.51003473 79048
QIANFAN-54              
1 62255U 24232U   26064.25692155  .00000075  00000+0  98194-4 0  9992
2 62255  89.0052  32.5594 0003136  39.8976 320.2405 13.51002889110554
QIANFAN-55              
1 62785U 25016A   26064.28297147  .00000054  00000+0  64245-4 0  9993
2 62785  88.9693  94.6701 0019422 108.6280 251.6982 13.50996281 58339
QIANFAN-56              
1 62786U 25016B   26064.22528027  .00000046  00000+0  52278-4 0  9996
2 62786  88.9666  94.4903 0018053 110.7889 249.5198 13.50998156 58372
QIANFAN-57              
1 62787U 25016C   26064.33232036  .00000043  00000+0  48089-4 0  9993
2 62787  88.9697  94.6583 0001362  98.7659 261.3646 13.50997021 58356
QIANFAN-58              
1 62788U 25016D   26064.22939177  .00000053  00000+0  63279-4 0  9991
2 62788  88.9667  94.4752 0016016 103.9226 256.3708 13.50998687 58386
QIANFAN-59              
1 62789U 25016E   26064.25423076  .00000054  00000+0  64415-4 0  9995
2 62789  88.9690  94.5659 0016354 107.1601 253.1342 13.50994558 58380
QIANFAN-60              
1 62790U 25016F   26064.28715928  .00000046  00000+0  52483-4 0  9993
2 62790  88.9671  94.5181 0017927 104.1350 256.1795 13.50992518 58374
QIANFAN-61              
1 62791U 25016G   26063.87569750  .00000060  00000+0  73167-4 0  9996
2 62791  88.9738  94.7800 0016848 104.5529 255.7492 13.50993856 58333
QIANFAN-62              
1 62792U 25016H   26064.25006126  .00000049  00000+0  57455-4 0  9992
2 62792  88.9685  94.5649 0018230 103.9644 256.3536 13.50996557 58373
QIANFAN-63              
1 62793U 25016J   26064.27478273  .00000049  00000+0  56522-4 0  9995
2 62793  88.9692  94.5194 0018268 108.6740 251.6397 13.50995194 58411
QIANFAN-64              
1 62794U 25016K   26064.24189201  .00000043  00000+0  47051-4 0  9994
2 62794  88.9679  94.4859 0016226 102.3528 257.9440 13.51005495 58405
QIANFAN-65              
1 62795U 25016L   26064.31174768  .00000037  00000+0  38761-4 0  9996
2 62795  88.9675  94.5016 0016083 103.6998 256.5945 13.51008729 58390
QIANFAN-66              
1 62796U 25016M   26064.26648817  .00000048  00000+0  55498-4 0  9990
2 62796  88.9694  94.4927 0017197 100.0843 260.2250 13.50996888 58436
QIANFAN-67              
1 62797U 25016N   26064.27054796  .00000050  00000+0  58512-4 0  9992
2 62797  88.9685  94.5097 0017139 106.1029 254.2011 13.50995265 58408
QIANFAN-68              
1 62798U 25016P   26064.33652480  .00000050  00000+0  57909-4 0  9993
2 62798  88.9688  94.5511 0017208 104.4070 255.8992 13.51005214 58397
