[{"OBJECT_NAME":"QIANFAN-52","OBJECT_ID":"2024-232S","EPOCH":"2026-03-05T05:40:20.220960","MEAN_MOTION":13.510008,"ECCENTRICITY":0.00141302,"INCLINATION":89.0053,"RA_OF_ASC_NODE":32.7796,"ARG_OF_PERICENTER":320.953,"MEAN_ANOMALY":39.06,"EPHEMERIS_TYPE":0,"CLASSIFICATION_TYPE":"U","NORAD_CAT_ID":62253,"ELEMENT_SET_NO":999,"REV_AT_EPOCH":7908,"BSTAR":0.00012779148,"MEAN_MOTION_DOT":9.4e-7,"MEAN_MOTION_DDOT":0},{"OBJECT_NAME":"QIANFAN-53","OBJECT_ID":"2024-232T","EPOCH":"2026-03-05T05:10:40.113984","MEAN_MOTION":13.51003473,"ECCENTRICITY":0.00130614,"INCLINATION":89.0061,"RA_OF_ASC_NODE":32.8923,"ARG_OF_PERICENTER":322.8341,"MEAN_ANOMALY":37.1905,"EPHEMERIS_TYPE":0,"CLASSIFICATION_TYPE":"U","NORAD_CAT_ID":62254,"ELEMENT_SET_NO":999,"REV_AT_EPOCH":7904,"BSTAR":8.3733533e-5,"MEAN_MOTION_DOT":6.6e-7,"MEAN_MOTION_DDOT":0},{"OBJECT_NAME":"QIANFAN-54","OBJECT_ID":"2024-232U","EPOCH":"2026-03-05T06:09:58.021920","MEAN_MOTION":13.51002889,"ECCENTRICITY":0.00031362,"INCLINATION":89.0052,"RA_OF_ASC_NODE":32.5594,"ARG_OF_PERICENTER":39.8976,"MEAN_ANOMALY":320.2405,"EPHEMERIS_TYPE":0,"CLASSIFICATION_TYPE":"U","NORAD_CAT_ID":62255,"ELEMENT_SET_NO":999,"REV_AT_EPOCH":11055,"BSTAR":9.8193738e-5,"MEAN_MOTION_DOT":7.5e-7,"MEAN_MOTION_DDOT":0},{"OBJECT_NAME":"QIANFAN-55","OBJECT_ID":"2025-016A","EPOCH":"2026-03-05T06:47:28.735008","MEAN_MOTION":13.50996281,"ECCENTRICITY":0.00194222,"INCLINATION":88.9693,"RA_OF_ASC_NODE":94.6701,"ARG_OF_PERICENTER":108.628,"MEAN_ANOMALY":251.6982,"EPHEMERIS_TYPE":0,"CLASSIFICATION_TYPE":"U","NORAD_CAT_ID":62785,"ELEMENT_SET_NO":999,"REV_AT_EPOCH":5833,"BSTAR":6.4244833e-5,"MEAN_MOTION_DOT":5.4e-7,"MEAN_MOTION_DDOT":0},{"OBJECT_NAME":"QIANFAN-56","OBJECT_ID":"2025-016B","EPOCH":"2026-03-05T05:24:24.215328","MEAN_MOTION":13.50998156,"ECCENTRICITY":0.00180532,"INCLINATION":88.9666,"RA_OF_ASC_NODE":94.4903,"ARG_OF_PERICENTER":110.7889,"MEAN_ANOMALY":249.5198,"EPHEMERIS_TYPE":0,"CLASSIFICATION_TYPE":"U","NORAD_CAT_ID":62786,"ELEMENT_SET_NO":999,"REV_AT_EPOCH":5837,"BSTAR":5.227785e-5,"MEAN_MOTION_DOT":4.6e-7,"MEAN_MOTION_DDOT":0},{"OBJECT_NAME":"QIANFAN-57","OBJECT_ID":"2025-016C","EPOCH":"2026-03-05T07:58:32.479104","MEAN_MOTION":13.50997021,"ECCENTRICITY":0.00013629,"INCLINATION":88.9697,"RA_OF_ASC_NODE":94.6583,"ARG_OF_PERICENTER":98.7659,"MEAN_ANOMALY":261.3646,"EPHEMERIS_TYPE":0,"CLASSIFICATION_TYPE":"U","NORAD_CAT_ID":62787,"ELEMENT_SET_NO":999,"REV_AT_EPOCH":5835,"BSTAR":4.8089249e-5,"MEAN_MOTION_DOT":4.3e-7,"MEAN_MOTION_DDOT":0},{"OBJECT_NAME":"QIANFAN-58","OBJECT_ID":"2025-016D","EPOCH":"2026-03-05T05:30:19.448928","MEAN_MOTION":13.50998687,"ECCENTRICITY":0.00160161,"INCLINATION":88.9667,"RA_OF_ASC_NODE":94.4752,"ARG_OF_PERICENTER":103.9226,"MEAN_ANOMALY":256.3708,"EPHEMERIS_TYPE":0,"CLASSIFICATION_TYPE":"U","NORAD_CAT_ID":62788,"ELEMENT_SET_NO":999,"REV_AT_EPOCH":5838,"BSTAR":6.3278923e-5,"MEAN_MOTION_DOT":5.3e-7,"MEAN_MOTION_DDOT":0},{"OBJECT_NAME":"QIANFAN-59","OBJECT_ID":"2025-016E","EPOCH":"2026-03-05T06:06:05.537664","MEAN_MOTION":13.50994558,"ECCENTRICITY":0.00163546,"INCLINATION":88.969,"RA_OF_ASC_NODE":94.5659,"ARG_OF_PERICENTER":107.1601,"MEAN_ANOMALY":253.1342,"EPHEMERIS_TYPE":0,"CLASSIFICATION_TYPE":"U","NORAD_CAT_ID":62789,"ELEMENT_SET_NO":999,"REV_AT_EPOCH":5838,"BSTAR":6.4415209e-5,"MEAN_MOTION_DOT":5.4e-7,"MEAN_MOTION_DDOT":0},{"OBJECT_NAME":"QIANFAN-60","OBJECT_ID":"2025-016F","EPOCH":"2026-03-05T06:53:30.561792","MEAN_MOTION":13.50992518,"ECCENTRICITY":0.00179278,"INCLINATION":88.9671,"RA_OF_ASC_NODE":94.5181,"ARG_OF_PERICENTER":104.135,"MEAN_ANOMALY":256.1795,"EPHEMERIS_TYPE":0,"CLASSIFICATION_TYPE":"U","NORAD_CAT_ID":62790,"ELEMENT_SET_NO":999,"REV_AT_EPOCH":5837,"BSTAR":5.248343e-5,"MEAN_MOTION_DOT":4.6e-7,"MEAN_MOTION_DDOT":0},{"OBJECT_NAME":"QIANFAN-61","OBJECT_ID":"2025-016G","EPOCH":"2026-03-04T21:01:00.264000","MEAN_MOTION":13.50993856,"ECCENTRICITY":0.00168487,"INCLINATION":88.9738,"RA_OF_ASC_NODE":94.78,"ARG_OF_PERICENTER":104.5529,"MEAN_ANOMALY":255.7492,"EPHEMERIS_TYPE":0,"CLASSIFICATION_TYPE":"U","NORAD_CAT_ID":62791,"ELEMENT_SET_NO":999,"REV_AT_EPOCH":5833,"BSTAR":7.3166773e-5,"MEAN_MOTION_DOT":6.0e-7,"MEAN_MOTION_DDOT":0},{"OBJECT_NAME":"QIANFAN-62","OBJECT_ID":"2025-016H","EPOCH":"2026-03-05T06:00:05.292864","MEAN_MOTION":13.50996557,"ECCENTRICITY":0.00182302,"INCLINATION":88.9685,"RA_OF_ASC_NODE":94.5649,"ARG_OF_PERICENTER":103.9644,"MEAN_ANOMALY":256.3536,"EPHEMERIS_TYPE":0,"CLASSIFICATION_TYPE":"U","NORAD_CAT_ID":62792,"ELEMENT_SET_NO":999,"REV_AT_EPOCH":5837,"BSTAR":5.7455425e-5,"MEAN_MOTION_DOT":4.9e-7,"MEAN_MOTION_DDOT":0},{"OBJECT_NAME":"QIANFAN-63","OBJECT_ID":"2025-016J","EPOCH":"2026-03-05T06:35:41.227872","MEAN_MOTION":13.50995194,"ECCENTRICITY":0.00182689,"INCLINATION":88.9692,"RA_OF_ASC_NODE":94.5194,"ARG_OF_PERICENTER":108.674,"MEAN_ANOMALY":251.6397,"EPHEMERIS_TYPE":0,"CLASSIFICATION_TYPE":"U","NORAD_CAT_ID":62793,"ELEMENT_SET_NO":999,"REV_AT_EPOCH":5841,"BSTAR":5.6521522e-5,"MEAN_MOTION_DOT":4.9e-7,"MEAN_MOTION_DDOT":0},{"OBJECT_NAME":"QIANFAN-64","OBJECT_ID":"2025-016K","EPOCH":"2026-03-05T05:48:19.469664","MEAN_MOTION":13.51005495,"ECCENTRICITY":0.00162267,"INCLINATION":88.9679,"RA_OF_ASC_NODE":94.4859,"ARG_OF_PERICENTER":102.3528,"MEAN_ANOMALY":257.944,"EPHEMERIS_TYPE":0,"CLASSIFICATION_TYPE":"U","NORAD_CAT_ID":62794,"ELEMENT_SET_NO":999,"REV_AT_EPOCH":5840,"BSTAR":4.7050958e-5,"MEAN_MOTION_DOT":4.3e-7,"MEAN_MOTION_DDOT":0},{"OBJECT_NAME":"QIANFAN-65","OBJECT_ID":"2025-016L","EPOCH":"2026-03-05T07:28:54.999552","MEAN_MOTION":13.51008729,"ECCENTRICITY":0.00160833,"INCLINATION":88.9675,"RA_OF_ASC_NODE":94.5016,"ARG_OF_PERICENTER":103.6998,"MEAN_ANOMALY":256.5945,"EPHEMERIS_TYPE":0,"CLASSIFICATION_TYPE":"U","NORAD_CAT_ID":62795,"ELEMENT_SET_NO":999,"REV_AT_EPOCH":5839,"BSTAR":3.8761341e-5,"MEAN_MOTION_DOT":3.7e-7,"MEAN_MOTION_DDOT":0},{"OBJECT_NAME":"QIANFAN-66","OBJECT_ID":"2025-016M","EPOCH":"2026-03-05T06:23:44.577888","MEAN_MOTION":13.50996888,"ECCENTRICITY":0.00171977,"INCLINATION":88.9694,"RA_OF_ASC_NODE":94.4927,"ARG_OF_PERICENTER":100.0843,"MEAN_ANOMALY":260.225,"EPHEMERIS_TYPE":0,"CLASSIFICATION_TYPE":"U","NORAD_CAT_ID":62796,"ELEMENT_SET_NO":999,"REV_AT_EPOCH":5843,"BSTAR":5.5497703e-5,"MEAN_MOTION_DOT":4.8e-7,"MEAN_MOTION_DDOT":0},{"OBJECT_NAME":"QIANFAN-67","OBJECT_ID":"2025-016N","EPOCH":"2026-03-05T06:29:35.343744","MEAN_MOTION":13.50995265,"ECCENTRICITY":0.00171393,"INCLINATION":88.9685,"RA_OF_ASC_NODE":94.5097,"ARG_OF_PERICENTER":106.1029,"MEAN_ANOMALY":254.2011,"EPHEMERIS_TYPE":0,"CLASSIFICATION_TYPE":"U","NORAD_CAT_ID":62797,"ELEMENT_SET_NO":999,"REV_AT_EPOCH":5840,"BSTAR":5.8512211e-5,"MEAN_MOTION_DOT":5.0e-7,"MEAN_MOTION_DDOT":0},{"OBJECT_NAME":"QIANFAN-68","OBJECT_ID":"2025-016P","EPOCH":"2026-03-05T08:04:35.742720","MEAN_MOTION":13.51005214,"ECCENTRICITY":0.0017208,"INCLINATION":88.9688,"RA_OF_ASC_NODE":94.5511,"ARG_OF_PERICENTER":104.407,"MEAN_ANOMALY":255.8992,"EPHEMERIS_TYPE":0,"CLASSIFICATION_TYPE":"U","NORAD_CAT_ID":62798,"ELEMENT_SET_NO":999,"REV_AT_EPOCH":5839,"BSTAR":5.7909115e-5,"MEAN_MOTION_DOT":5.0e-7,"MEAN_MOTION_DDOT":0}]
